{
"type": "FeatureCollection",
"name": "Restaurants and Eateries",
"features": [
{ "type": "Feature", "properties": { "Name": "Subway" }, "geometry": { "type": "Point", "coordinates": [ -84.5689597, 42.6980112, 0.0 ] } },
{ "type": "Feature", "properties": { "Name": "MK Pho Asian Cuisine" }, "geometry": { "type": "Point", "coordinates": [ -84.5686492, 42.6980241, 0.0 ] } },
{ "type": "Feature", "properties": { "Name": "China Garden" }, "geometry": { "type": "Point", "coordinates": [ -84.5738676, 42.7114246, 0.0 ] } },
{ "type": "Feature", "properties": { "Name": "Mancino's Pizza & Grinders - Michigan" }, "geometry": { "type": "Point", "coordinates": [ -84.5716507, 42.7122559, 0.0 ] } },
{ "type": "Feature", "properties": { "Name": "Popeyes Louisiana Kitchen" }, "geometry": { "type": "Point", "coordinates": [ -84.5679316, 42.7020879, 0.0 ] } },
{ "type": "Feature", "properties": { "Name": "Rally's" }, "geometry": { "type": "Point", "coordinates": [ -84.5678937, 42.7013002, 0.0 ] } },
{ "type": "Feature", "properties": { "Name": "McDonald's" }, "geometry": { "type": "Point", "coordinates": [ -84.5667109, 42.7002171, 0.0 ] } },
{ "type": "Feature", "properties": { "Name": "Fresh Fish & Fry - Crack Chicken" }, "geometry": { "type": "Point", "coordinates": [ -84.5678191, 42.7002048, 0.0 ] } },
{ "type": "Feature", "properties": { "Name": "Taco Bell" }, "geometry": { "type": "Point", "coordinates": [ -84.5667768, 42.6995747, 0.0 ] } },
{ "type": "Feature", "properties": { "Name": "A Burger N Wings" }, "geometry": { "type": "Point", "coordinates": [ -84.5677672, 42.6993005, 0.0 ] } },
{ "type": "Feature", "properties": { "Name": "Arby's" }, "geometry": { "type": "Point", "coordinates": [ -84.5667905, 42.6989081, 0.0 ] } },
{ "type": "Feature", "properties": { "Name": "KFC" }, "geometry": { "type": "Point", "coordinates": [ -84.567829, 42.698756, 0.0 ] } },
{ "type": "Feature", "properties": { "Name": "Burger King" }, "geometry": { "type": "Point", "coordinates": [ -84.5667182, 42.6983029, 0.0 ] } },
{ "type": "Feature", "properties": { "Name": "Little Caesars Pizza" }, "geometry": { "type": "Point", "coordinates": [ -84.567122, 42.697721, 0.0 ] } },
{ "type": "Feature", "properties": { "Name": "Hungry Howie's Pizza" }, "geometry": { "type": "Point", "coordinates": [ -84.564792, 42.6979063, 0.0 ] } },
{ "type": "Feature", "properties": { "Name": "Family Dollar" }, "geometry": { "type": "Point", "coordinates": [ -84.5646583, 42.697138, 0.0 ] } },
{ "type": "Feature", "properties": { "Name": "Charleys Cheesesteaks and Wings" }, "geometry": { "type": "Point", "coordinates": [ -84.5669423, 42.6950157, 0.0 ] } },
{ "type": "Feature", "properties": { "Name": "Taqueria Los 2 carnales" }, "geometry": { "type": "Point", "coordinates": [ -84.5670592, 42.6892304, 0.0 ] } },
{ "type": "Feature", "properties": { "Name": "Elsa's Chicken and Waffles" }, "geometry": { "type": "Point", "coordinates": [ -84.6014443, 42.682695, 0.0 ] } },
{ "type": "Feature", "properties": { "Name": "Toarmina's Pizza (Waverly)" }, "geometry": { "type": "Point", "coordinates": [ -84.6039618, 42.6947122, 0.0 ] } },
{ "type": "Feature", "properties": { "Name": "China Palace 2" }, "geometry": { "type": "Point", "coordinates": [ -84.6038918, 42.694732, 0.0 ] } },
{ "type": "Feature", "properties": { "Name": "La Mulata Bar Restaurant" }, "geometry": { "type": "Point", "coordinates": [ -84.5713764, 42.6797362, 0.0 ] } },
{ "type": "Feature", "properties": { "Name": "Munchies" }, "geometry": { "type": "Point", "coordinates": [ -84.5680558, 42.6915782, 0.0 ] } },
{ "type": "Feature", "properties": { "Name": "Mari’s Taqueria" }, "geometry": { "type": "Point", "coordinates": [ -84.5830287, 42.6969701, 0.0 ] } },
{ "type": "Feature", "properties": { "Name": "Elsa's Chicken and Waffles" }, "geometry": { "type": "Point", "coordinates": [ -84.6014443, 42.682695, 0.0 ] } },
{ "type": "Feature", "properties": { "Name": "BIGGBY COFFEE" }, "geometry": { "type": "Point", "coordinates": [ -84.5680368, 42.6904292, 0.0 ] } },
{ "type": "Feature", "properties": { "Name": "Elsa's Chicken and Waffles" }, "geometry": { "type": "Point", "coordinates": [ -84.6014443, 42.682695, 0.0 ] } },
{ "type": "Feature", "properties": { "Name": "517 Coffee Company" }, "geometry": { "type": "Point", "coordinates": [ -84.5810319, 42.6716242, 0.0 ] } },
{ "type": "Feature", "properties": { "Name": "A Catered Affaire" }, "geometry": { "type": "Point", "coordinates": [ -84.5935779, 42.7081401, 0.0 ] } },
{ "type": "Feature", "properties": { "Name": "Club Tabu / The Sanctuary" }, "geometry": { "type": "Point", "coordinates": [ -84.5681568, 42.6999617, 0.0 ] } },
{ "type": "Feature", "properties": { "Name": "McDonald's" }, "geometry": { "type": "Point", "coordinates": [ -84.5917936, 42.6629606, 0.0 ] } },
{ "type": "Feature", "properties": { "Name": "Tim Hortons" }, "geometry": { "type": "Point", "coordinates": [ -84.5902658, 42.6623536, 0.0 ] } },
{ "type": "Feature", "properties": { "Name": "Coach's Pub and Grill" }, "geometry": { "type": "Point", "coordinates": [ -84.590182, 42.661197, 0.0 ] } }
]
}
